{"type":"FeatureCollection","features":[{"type":"Feature","properties":{"name":"COMISARIA 1°"},"geometry":{"type":"Polygon","coordinates":[[[-65.78251,-28.47621],[-65.76939,-28.47568],[-65.76936,-28.47494],[-65.76934,-28.47425],[-65.7695,-28.47157],[-65.76968,-28.4698],[-65.76966,-28.46923],[-65.76969,-28.46898],[-65.76969,-28.46883],[-65.76965,-28.46871],[-65.76973,-28.46709],[-65.76987,-28.46529],[-65.76994,-28.4602],[-65.78169,-28.4606],[-65.78609,-28.46074],[-65.786,-28.46206],[-65.78725,-28.46209],[-65.78697,-28.4688],[-65.78652,-28.46903],[-65.78653,-28.46955],[-65.78658,-28.4699],[-65.78664,-28.47005],[-65.78704,-28.4703],[-65.78669,-28.47646],[-65.78251,-28.47621]]]}},{"type":"Feature","properties":{"name":"COMISARIA 2°"},"geometry":{"type":"Polygon","coordinates":[[[-65.78621,-28.48895],[-65.78292,-28.48869],[-65.78448,-28.4924],[-65.78861,-28.50199],[-65.791,-28.50458],[-65.79255,-28.50625],[-65.79272,-28.50646],[-65.7928,-28.50666],[-65.78727,-28.50918],[-65.78431,-28.50992],[-65.78207,-28.50315],[-65.78175,-28.50021],[-65.77993,-28.49485],[-65.77863,-28.4909],[-65.77827,-28.48979],[-65.77801,-28.48959],[-65.77771,-28.48941],[-65.77745,-28.48942],[-65.77721,-28.48936],[-65.77668,-28.48684],[-65.77632,-28.48496],[-65.77662,-28.47606],[-65.78558,-28.47648],[-65.78562,-28.47769],[-65.7857,-28.48017],[-65.78621,-28.48895]]]}},{"type":"Feature","properties":{"name":"COMISARIA 3°"},"geometry":{"type":"Polygon","coordinates":[[[-65.76231,-28.47617],[-65.7617,-28.47637],[-65.76132,-28.4758],[-65.76041,-28.47509],[-65.75835,-28.47471],[-65.75684,-28.47389],[-65.75619,-28.47355],[-65.75599,-28.47303],[-65.75596,-28.47214],[-65.75605,-28.47066],[-65.75551,-28.46963],[-65.75438,-28.46917],[-65.75258,-28.46868],[-65.75144,-28.46815],[-65.75086,-28.46734],[-65.74997,-28.46644],[-65.74863,-28.46532],[-65.74709,-28.46446],[-65.74555,-28.46369],[-65.7443,-28.46219],[-65.74365,-28.46144],[-65.74329,-28.46091],[-65.74257,-28.46011],[-65.74145,-28.45969],[-65.73987,-28.45953],[-65.73921,-28.45938],[-65.73827,-28.45887],[-65.73748,-28.45761],[-65.73601,-28.45657],[-65.73361,-28.45558],[-65.73086,-28.45394],[-65.7301,-28.45149],[-65.72943,-28.44928],[-65.72952,-28.44846],[-65.7296,-28.44778],[-65.73036,-28.44789],[-65.73104,-28.44797],[-65.73168,-28.44828],[-65.73281,-28.4499],[-65.73392,-28.45116],[-65.73957,-28.45286],[-65.7399,-28.45306],[-65.74037,-28.45299],[-65.74052,-28.4531],[-65.74089,-28.45332],[-65.74117,-28.45332],[-65.74102,-28.45294],[-65.74181,-28.45221],[-65.74299,-28.45122],[-65.74536,-28.45],[-65.74677,-28.44932],[-65.74976,-28.44757],[-65.75151,-28.44679],[-65.75802,-28.44362],[-65.7593,-28.44311],[-65.75986,-28.44294],[-65.76049,-28.44591],[-65.76113,-28.44729],[-65.76174,-28.44863],[-65.76262,-28.44998],[-65.76337,-28.45117],[-65.76401,-28.45244],[-65.76519,-28.45412],[-65.76847,-28.45691],[-65.76932,-28.45756],[-65.76991,-28.45855],[-65.76994,-28.46023],[-65.76982,-28.46239],[-65.76987,-28.46477],[-65.76872,-28.46596],[-65.76818,-28.46739],[-65.7679,-28.4686],[-65.76737,-28.47026],[-65.76476,-28.4729],[-65.76353,-28.47346],[-65.76231,-28.47617]]]}},{"type":"Feature","properties":{"name":"COMISARIA 4°"},"geometry":{"type":"Polygon","coordinates":[[[-65.8226,-28.45647],[-65.81946,-28.4601],[-65.81588,-28.46024],[-65.81107,-28.46061],[-65.81009,-28.46067],[-65.80908,-28.46095],[-65.80639,-28.46082],[-65.80777,-28.46293],[-65.80776,-28.46395],[-65.80774,-28.46415],[-65.80776,-28.46481],[-65.80763,-28.46603],[-65.80748,-28.46678],[-65.78819,-28.46591],[-65.787,-28.4659],[-65.78731,-28.46169],[-65.78604,-28.46171],[-65.78604,-28.46034],[-65.78171,-28.46029],[-65.7819,-28.45426],[-65.7821,-28.45103],[-65.78212,-28.44864],[-65.78222,-28.44745],[-65.78248,-28.44402],[-65.78431,-28.44405],[-65.78734,-28.44413],[-65.78952,-28.44416],[-65.79117,-28.44427],[-65.79212,-28.44457],[-65.7934,-28.44519],[-65.79425,-28.44562],[-65.79465,-28.44565],[-65.79537,-28.44552],[-65.8015,-28.44588],[-65.82341,-28.44519],[-65.82632,-28.44823],[-65.82646,-28.45674],[-65.8226,-28.45647]]]}},{"type":"Feature","properties":{"name":"COMISARIA 5°"},"geometry":{"type":"Polygon","coordinates":[[[-65.8547,-28.46759],[-65.84496,-28.47731],[-65.82919,-28.47574],[-65.81865,-28.47756],[-65.80863,-28.47726],[-65.80051,-28.47693],[-65.79903,-28.477],[-65.79889,-28.47996],[-65.79195,-28.47963],[-65.78568,-28.48011],[-65.78558,-28.47757],[-65.78556,-28.47642],[-65.78663,-28.47648],[-65.78711,-28.47025],[-65.78664,-28.46985],[-65.78658,-28.46898],[-65.78704,-28.46876],[-65.78712,-28.46604],[-65.80762,-28.46711],[-65.80764,-28.46657],[-65.80777,-28.46336],[-65.80632,-28.46136],[-65.80908,-28.46137],[-65.81008,-28.46109],[-65.81946,-28.46053],[-65.8226,-28.45689],[-65.82646,-28.45717],[-65.82646,-28.44843],[-65.82793,-28.44851],[-65.82914,-28.43736],[-65.8839,-28.31562],[-65.91718,-28.31257],[-65.87245,-28.42697],[-65.86659,-28.45066],[-65.85927,-28.45725],[-65.8547,-28.46759]]]}},{"type":"Feature","properties":{"name":"COMISARIA 6°"},"geometry":{"type":"Polygon","coordinates":[[[-65.81871,-28.47752],[-65.81851,-28.47763],[-65.8184,-28.47773],[-65.81833,-28.47785],[-65.81826,-28.47799],[-65.81822,-28.47823],[-65.81815,-28.47853],[-65.81808,-28.47863],[-65.8178,-28.47897],[-65.81741,-28.47934],[-65.81736,-28.47942],[-65.81732,-28.47951],[-65.81727,-28.47958],[-65.8172,-28.47964],[-65.81709,-28.47971],[-65.81694,-28.47979],[-65.81648,-28.48003],[-65.81616,-28.48071],[-65.81588,-28.48127],[-65.81585,-28.48168],[-65.81571,-28.48194],[-65.81543,-28.48207],[-65.81531,-28.48222],[-65.81519,-28.48264],[-65.81518,-28.48281],[-65.81538,-28.4834],[-65.81537,-28.48426],[-65.81529,-28.48442],[-65.81504,-28.48456],[-65.81487,-28.48497],[-65.81442,-28.48526],[-65.81427,-28.48565],[-65.81369,-28.48657],[-65.81367,-28.48725],[-65.81384,-28.48745],[-65.81439,-28.48773],[-65.81467,-28.48822],[-65.81456,-28.48959],[-65.8147,-28.48994],[-65.81517,-28.49058],[-65.81538,-28.49116],[-65.80809,-28.49064],[-65.80739,-28.49062],[-65.80668,-28.49056],[-65.8057,-28.49057],[-65.80407,-28.49047],[-65.79362,-28.48954],[-65.79337,-28.4896],[-65.79496,-28.49129],[-65.79594,-28.49233],[-65.79636,-28.49301],[-65.79605,-28.49322],[-65.79543,-28.49318],[-65.78471,-28.49236],[-65.783,-28.48842],[-65.78621,-28.48883],[-65.78587,-28.48107],[-65.78577,-28.47998],[-65.7918,-28.47961],[-65.79881,-28.47992],[-65.79902,-28.47686],[-65.81871,-28.47752]]]}},{"type":"Feature","properties":{"name":"COMISARIA 7°"},"geometry":{"type":"Polygon","coordinates":[[[-65.78245,-28.44424],[-65.78169,-28.46047],[-65.76994,-28.46006],[-65.76992,-28.45844],[-65.7693,-28.45745],[-65.76513,-28.45401],[-65.76395,-28.45232],[-65.76332,-28.451],[-65.76168,-28.44852],[-65.76043,-28.4458],[-65.7598,-28.44283],[-65.75964,-28.43635],[-65.76172,-28.43644],[-65.76423,-28.43655],[-65.76873,-28.43677],[-65.7688,-28.43694],[-65.76897,-28.43704],[-65.77046,-28.43789],[-65.77622,-28.4443],[-65.78245,-28.44424]]]}},{"type":"Feature","properties":{"name":"COMISARIA 8°"},"geometry":{"type":"Polygon","coordinates":[[[-65.79133,-28.44454],[-65.78956,-28.44443],[-65.78618,-28.44443],[-65.7849,-28.44431],[-65.78314,-28.44433],[-65.77916,-28.44438],[-65.77621,-28.44435],[-65.77032,-28.43795],[-65.76954,-28.43748],[-65.7688,-28.43698],[-65.76872,-28.43682],[-65.7673,-28.43678],[-65.76571,-28.43671],[-65.76443,-28.4367],[-65.76419,-28.43664],[-65.76254,-28.43656],[-65.7615,-28.43649],[-65.75975,-28.4365],[-65.75955,-28.4336],[-65.76208,-28.43332],[-65.76819,-28.43248],[-65.77368,-28.43175],[-65.77936,-28.43099],[-65.78623,-28.43008],[-65.7873,-28.4299],[-65.79243,-28.42965],[-65.80349,-28.43016],[-65.8035,-28.44203],[-65.7916,-28.44449],[-65.79133,-28.44454]]]}},{"type":"Feature","properties":{"name":"COMISARIA 9°"},"geometry":{"type":"Polygon","coordinates":[[[-65.81355,-28.49103],[-65.81351,-28.49183],[-65.81338,-28.49257],[-65.81315,-28.49355],[-65.81213,-28.49499],[-65.812,-28.49549],[-65.81205,-28.49807],[-65.81222,-28.49854],[-65.80468,-28.50142],[-65.80773,-28.50452],[-65.80185,-28.50661],[-65.79618,-28.50868],[-65.793,-28.50638],[-65.79288,-28.50609],[-65.78885,-28.50195],[-65.78471,-28.49236],[-65.79605,-28.49322],[-65.79636,-28.49301],[-65.79594,-28.49233],[-65.79337,-28.4896],[-65.79362,-28.48954],[-65.8057,-28.49057],[-65.80668,-28.49056],[-65.81355,-28.49103]]]}},{"type":"Feature","properties":{"name":"COMISARIA 10°"},"geometry":{"type":"Polygon","coordinates":[[[-65.76985,-28.46488],[-65.76938,-28.47578],[-65.77666,-28.47608],[-65.77635,-28.48498],[-65.77725,-28.48938],[-65.77748,-28.48944],[-65.77775,-28.48944],[-65.77805,-28.48961],[-65.77831,-28.48981],[-65.77867,-28.49092],[-65.78248,-28.50141],[-65.7821,-28.50318],[-65.7845,-28.50978],[-65.78851,-28.52111],[-65.78973,-28.52296],[-65.79138,-28.52439],[-65.81769,-28.54233],[-65.81036,-28.54988],[-65.80607,-28.55109],[-65.79084,-28.55641],[-65.78547,-28.54732],[-65.784,-28.54218],[-65.77954,-28.5351],[-65.78107,-28.53367],[-65.78217,-28.53126],[-65.78132,-28.52987],[-65.77954,-28.52837],[-65.77931,-28.52494],[-65.77776,-28.52134],[-65.77609,-28.5189],[-65.77576,-28.51395],[-65.77609,-28.51288],[-65.77618,-28.5109],[-65.77459,-28.50911],[-65.77451,-28.50616],[-65.77601,-28.50328],[-65.77446,-28.50174],[-65.77334,-28.49876],[-65.7738,-28.4959],[-65.77292,-28.49377],[-65.771,-28.49043],[-65.7706,-28.48876],[-65.7703,-28.48795],[-65.76904,-28.48614],[-65.76774,-28.48537],[-65.76724,-28.48467],[-65.76624,-28.48357],[-65.76407,-28.48166],[-65.76386,-28.4796],[-65.76359,-28.47897],[-65.76322,-28.47842],[-65.76276,-28.47777],[-65.76211,-28.47714],[-65.76167,-28.47648],[-65.76228,-28.47627],[-65.76351,-28.47357],[-65.76488,-28.47299],[-65.76734,-28.47037],[-65.76816,-28.4675],[-65.76869,-28.46607],[-65.76985,-28.46488]]]}},{"type":"Feature","properties":{"name":"COMISARIA 11°"},"geometry":{"type":"Polygon","coordinates":[[[-65.8154,-28.49129],[-65.82904,-28.49338],[-65.83857,-28.51307],[-65.82222,-28.53124],[-65.81777,-28.54243],[-65.80943,-28.53669],[-65.7913,-28.52442],[-65.78981,-28.52298],[-65.78866,-28.52134],[-65.78445,-28.50981],[-65.78447,-28.50987],[-65.78741,-28.50908],[-65.793,-28.5066],[-65.79604,-28.50873],[-65.80773,-28.50456],[-65.80454,-28.50146],[-65.80842,-28.50004],[-65.81224,-28.49867],[-65.81223,-28.49848],[-65.81207,-28.4982],[-65.81203,-28.49747],[-65.81202,-28.49563],[-65.81215,-28.49513],[-65.81317,-28.49369],[-65.81353,-28.49196],[-65.81357,-28.49116],[-65.8154,-28.49129]]]}},{"type":"Feature","properties":{"name":"COMISARIA 12°"},"geometry":{"type":"Polygon","coordinates":[[[-65.7299,-28.40361],[-65.73204,-28.40389],[-65.73464,-28.41776],[-65.75832,-28.42617],[-65.7595,-28.43366],[-65.75974,-28.44293],[-65.7579,-28.44361],[-65.75139,-28.44678],[-65.74964,-28.44756],[-65.74664,-28.44931],[-65.74287,-28.45121],[-65.7409,-28.45293],[-65.74105,-28.45331],[-65.74077,-28.45331],[-65.74025,-28.45297],[-65.73945,-28.45285],[-65.7338,-28.45114],[-65.73156,-28.44827],[-65.73091,-28.44796],[-65.72948,-28.44777],[-65.72956,-28.44726],[-65.72991,-28.44646],[-65.73006,-28.44577],[-65.72983,-28.44497],[-65.72915,-28.44347],[-65.72897,-28.44262],[-65.72921,-28.44135],[-65.72953,-28.44021],[-65.72917,-28.43893],[-65.72603,-28.43903],[-65.72473,-28.43712],[-65.72507,-28.4352],[-65.72608,-28.43277],[-65.72595,-28.43154],[-65.72586,-28.43],[-65.72743,-28.42759],[-65.72915,-28.42476],[-65.72966,-28.42269],[-65.7299,-28.41942],[-65.72881,-28.41809],[-65.72839,-28.41631],[-65.72841,-28.4124],[-65.72816,-28.41082],[-65.72774,-28.40921],[-65.72812,-28.40669],[-65.72858,-28.40525],[-65.7299,-28.40361]]]}},{"type":"Feature","properties":{"name":"COMISARIA 13°"},"geometry":{"type":"Polygon","coordinates":[[[-65.76527,-28.41541],[-65.77146,-28.40408],[-65.80249,-28.40559],[-65.80962,-28.41279],[-65.80377,-28.4301],[-65.79271,-28.42959],[-65.78758,-28.42984],[-65.78651,-28.43002],[-65.78185,-28.43064],[-65.77695,-28.43129],[-65.77265,-28.43186],[-65.76841,-28.43248],[-65.76823,-28.4325],[-65.76527,-28.41541]]]}},{"type":"Feature","properties":{"name":"COMISARIA PIEDRA BLANCA"},"geometry":{"type":"Polygon","coordinates":[[[-65.73373,-28.39224],[-65.71663,-28.39437],[-65.71577,-28.39409],[-65.71268,-28.39435],[-65.70378,-28.39571],[-65.69689,-28.39638],[-65.68453,-28.39735],[-65.67853,-28.3785],[-65.68952,-28.35857],[-65.70119,-28.33137],[-65.71046,-28.30266],[-65.72145,-28.27122],[-65.74411,-28.23977],[-65.76436,-28.25217],[-65.73373,-28.39224]]]}},{"type":"Feature","properties":{"name":"COMISARIA VILLA DOLORES"},"geometry":{"type":"Polygon","coordinates":[[[-65.7097,-28.42962],[-65.71126,-28.42926],[-65.71248,-28.42968],[-65.71344,-28.42968],[-65.71423,-28.42977],[-65.71621,-28.42936],[-65.7172,-28.42895],[-65.71766,-28.42845],[-65.71909,-28.42834],[-65.71986,-28.42856],[-65.72066,-28.42862],[-65.72119,-28.42859],[-65.72218,-28.42824],[-65.72312,-28.42788],[-65.7239,-28.42716],[-65.72423,-28.43],[-65.72487,-28.4314],[-65.72609,-28.4328],[-65.72559,-28.43403],[-65.72508,-28.43523],[-65.72481,-28.43631],[-65.72474,-28.43715],[-65.72558,-28.43839],[-65.72604,-28.43906],[-65.72668,-28.43905],[-65.72918,-28.43896],[-65.72954,-28.44024],[-65.7292,-28.4415],[-65.72898,-28.44265],[-65.72916,-28.4435],[-65.7296,-28.44448],[-65.73007,-28.44581],[-65.72992,-28.44649],[-65.72957,-28.44729],[-65.72949,-28.4478],[-65.72917,-28.44782],[-65.72867,-28.4478],[-65.72589,-28.44855],[-65.72738,-28.44982],[-65.72654,-28.44997],[-65.72405,-28.45015],[-65.72399,-28.451],[-65.72317,-28.45097],[-65.72155,-28.45177],[-65.72112,-28.44977],[-65.71782,-28.45183],[-65.71776,-28.45192],[-65.71775,-28.45123],[-65.71796,-28.45042],[-65.71768,-28.44958],[-65.71762,-28.44947],[-65.71751,-28.44942],[-65.71706,-28.44957],[-65.71695,-28.44954],[-65.71653,-28.449],[-65.7163,-28.44841],[-65.71644,-28.44816],[-65.71659,-28.44703],[-65.71624,-28.44681],[-65.71596,-28.44649],[-65.71447,-28.44306],[-65.71272,-28.43824],[-65.71135,-28.43415],[-65.71025,-28.43116],[-65.7097,-28.42962]]]}},{"type":"Feature","properties":{"name":"COMISARIA SUMALAO"},"geometry":{"type":"Polygon","coordinates":[[[-65.7494,-28.46616],[-65.74952,-28.46614],[-65.74978,-28.46635],[-65.75068,-28.46724],[-65.75126,-28.46805],[-65.75254,-28.46862],[-65.75434,-28.46907],[-65.75532,-28.46953],[-65.75587,-28.47056],[-65.75581,-28.47294],[-65.75601,-28.47345],[-65.75701,-28.47401],[-65.75816,-28.47462],[-65.76022,-28.475],[-65.76113,-28.47571],[-65.7618,-28.47696],[-65.76245,-28.47758],[-65.76291,-28.47823],[-65.76355,-28.47942],[-65.76367,-28.48045],[-65.76376,-28.48148],[-65.76459,-28.48221],[-65.76593,-28.48338],[-65.76693,-28.48449],[-65.76743,-28.48518],[-65.76873,-28.48595],[-65.76944,-28.48702],[-65.76999,-28.48776],[-65.77069,-28.49025],[-65.77144,-28.49183],[-65.77261,-28.49359],[-65.77349,-28.49572],[-65.77303,-28.49858],[-65.77416,-28.50155],[-65.7757,-28.50309],[-65.7742,-28.50598],[-65.77426,-28.50893],[-65.77587,-28.51072],[-65.77579,-28.5127],[-65.77545,-28.51377],[-65.77553,-28.5156],[-65.77579,-28.51872],[-65.77746,-28.52116],[-65.779,-28.52476],[-65.77927,-28.52827],[-65.78101,-28.52968],[-65.78186,-28.53108],[-65.78076,-28.53348],[-65.77923,-28.53491],[-65.78053,-28.53722],[-65.78376,-28.5425],[-65.7856,-28.54815],[-65.78766,-28.55168],[-65.79053,-28.55622],[-65.78885,-28.55781],[-65.78781,-28.55877],[-65.78699,-28.5581],[-65.78592,-28.55821],[-65.7851,-28.55911],[-65.78356,-28.56058],[-65.78296,-28.56303],[-65.78455,-28.56458],[-65.78609,-28.56514],[-65.78716,-28.56529],[-65.78935,-28.5662],[-65.78991,-28.56699],[-65.79072,-28.56812],[-65.79248,-28.57034],[-65.79193,-28.57129],[-65.78995,-28.57185],[-65.78892,-28.57219],[-65.78678,-28.57555],[-65.78708,-28.57641],[-65.78836,-28.57683],[-65.78969,-28.57732],[-65.79042,-28.57875],[-65.7907,-28.58237],[-65.79058,-28.58394],[-65.79,-28.58524],[-65.78929,-28.58595],[-65.78879,-28.58665],[-65.78869,-28.58759],[-65.78927,-28.58803],[-65.79036,-28.5882],[-65.79109,-28.58812],[-65.79188,-28.58833],[-65.79558,-28.59002],[-65.7989,-28.59136],[-65.80004,-28.59223],[-65.80212,-28.5926],[-65.80315,-28.59315],[-65.80399,-28.59396],[-65.80332,-28.59556],[-65.80182,-28.5982],[-65.80126,-28.59909],[-65.80049,-28.59958],[-65.80087,-28.60129],[-65.80045,-28.60223],[-65.79886,-28.60331],[-65.79804,-28.60419],[-65.79781,-28.60517],[-65.79851,-28.60596],[-65.79954,-28.60645],[-65.80118,-28.60792],[-65.80115,-28.60924],[-65.79888,-28.61276],[-65.79972,-28.61438],[-65.80296,-28.61583],[-65.80495,-28.62205],[-65.80759,-28.6232],[-65.80776,-28.62423],[-65.80712,-28.62531],[-65.80633,-28.62672],[-65.80733,-28.63135],[-65.80849,-28.63312],[-65.80871,-28.63666],[-65.80613,-28.64141],[-65.80648,-28.64427],[-65.80527,-28.646],[-65.8033,-28.64834],[-65.80407,-28.64962],[-65.80175,-28.6515],[-65.79961,-28.65218],[-65.79875,-28.65482],[-65.79738,-28.65685],[-65.79807,-28.65919],[-65.79755,-28.66205],[-65.79746,-28.66514],[-65.79412,-28.66702],[-65.79291,-28.6692],[-65.79472,-28.67131],[-65.79704,-28.67199],[-65.79893,-28.67387],[-65.79876,-28.67696],[-65.7985,-28.67869],[-65.80082,-28.67959],[-65.8058,-28.67959],[-65.80674,-28.67982],[-65.80725,-28.6817],[-65.80554,-28.68373],[-65.80399,-28.68644],[-65.80622,-28.68795],[-65.80914,-28.6872],[-65.81069,-28.68915],[-65.8088,-28.69397],[-65.80777,-28.69548],[-65.81086,-28.69729],[-65.81275,-28.69909],[-65.81298,-28.7001],[-65.81684,-28.70006],[-65.82358,-28.70036],[-65.8289,-28.70273],[-65.8292,-28.70392],[-65.8289,-28.70642],[-65.82898,-28.7084],[-65.83197,-28.71427],[-65.83506,-28.71924],[-65.83575,-28.72771],[-65.77233,-28.73455],[-65.77086,-28.72065],[-65.76994,-28.71095],[-65.76888,-28.7065],[-65.76804,-28.69259],[-65.76659,-28.67849],[-65.7658,-28.67004],[-65.76474,-28.65934],[-65.76348,-28.6472],[-65.7614,-28.62582],[-65.75949,-28.6061],[-65.75786,-28.5903],[-65.75485,-28.56078],[-65.72234,-28.49698],[-65.72234,-28.49633],[-65.72261,-28.49567],[-65.72492,-28.492],[-65.72931,-28.47914],[-65.7141,-28.47424],[-65.71532,-28.47387],[-65.71668,-28.47375],[-65.72093,-28.47213],[-65.72195,-28.4719],[-65.72306,-28.472],[-65.72533,-28.47206],[-65.72797,-28.47263],[-65.72917,-28.47261],[-65.73028,-28.47015],[-65.73337,-28.46815],[-65.73396,-28.4682],[-65.73448,-28.46825],[-65.73741,-28.46715],[-65.73882,-28.46683],[-65.74569,-28.46671],[-65.7476,-28.46648],[-65.7494,-28.46616]]]}},{"type":"Feature","properties":{"name":"COMISARIA SANTA ROSA"},"geometry":{"type":"Polygon","coordinates":[[[-65.69606,-28.46695],[-65.67821,-28.48299],[-65.67503,-28.48546],[-65.67272,-28.48669],[-65.6701,-28.48608],[-65.66774,-28.48427],[-65.66662,-28.48235],[-65.66594,-28.48152],[-65.66491,-28.48084],[-65.66323,-28.47995],[-65.66139,-28.47944],[-65.65937,-28.47956],[-65.65742,-28.48029],[-65.6564,-28.48021],[-65.65495,-28.48065],[-65.65242,-28.48148],[-65.64989,-28.48201],[-65.61366,-28.53601],[-65.61202,-28.53321],[-65.6109,-28.53147],[-65.61156,-28.53009],[-65.61178,-28.5287],[-65.60913,-28.52526],[-65.60717,-28.52491],[-65.60625,-28.5243],[-65.6033,-28.52216],[-65.60118,-28.51923],[-65.60294,-28.50939],[-65.6033,-28.50645],[-65.6046,-28.50396],[-65.60403,-28.50238],[-65.60401,-28.50064],[-65.60558,-28.49959],[-65.60744,-28.49906],[-65.60825,-28.49785],[-65.60832,-28.49657],[-65.60641,-28.49386],[-65.60706,-28.49168],[-65.60543,-28.49072],[-65.60476,-28.48916],[-65.6022,-28.48862],[-65.59967,-28.48626],[-65.59906,-28.48402],[-65.60026,-28.48301],[-65.60007,-28.48242],[-65.59643,-28.47914],[-65.59524,-28.47958],[-65.59433,-28.47859],[-65.59517,-28.47638],[-65.59375,-28.4737],[-65.59427,-28.47241],[-65.59186,-28.46816],[-65.59041,-28.46805],[-65.58956,-28.46864],[-65.58888,-28.46796],[-65.58745,-28.46771],[-65.58673,-28.46609],[-65.58691,-28.4658],[-65.58695,-28.46475],[-65.58598,-28.46417],[-65.58654,-28.46285],[-65.58534,-28.46294],[-65.58474,-28.46229],[-65.58182,-28.45879],[-65.58208,-28.45745],[-65.57969,-28.4556],[-65.57954,-28.45484],[-65.5783,-28.45454],[-65.61933,-28.42058],[-65.65591,-28.44926],[-65.67141,-28.44435],[-65.68499,-28.43913],[-65.68655,-28.43848],[-65.68796,-28.43835],[-65.69561,-28.4373],[-65.70372,-28.4351],[-65.7038,-28.43467],[-65.70416,-28.43415],[-65.70458,-28.43356],[-65.70492,-28.43291],[-65.70534,-28.43232],[-65.70623,-28.43166],[-65.70729,-28.43072],[-65.70763,-28.4298],[-65.70781,-28.42962],[-65.70829,-28.42942],[-65.70882,-28.42903],[-65.70941,-28.42883],[-65.71024,-28.43101],[-65.71083,-28.43262],[-65.71193,-28.43598],[-65.71417,-28.44239],[-65.7159,-28.44638],[-65.71618,-28.44671],[-65.71653,-28.44692],[-65.71638,-28.44805],[-65.71624,-28.4483],[-65.71634,-28.44863],[-65.71647,-28.44889],[-65.71689,-28.44944],[-65.717,-28.44947],[-65.71709,-28.44945],[-65.71722,-28.4494],[-65.71745,-28.44932],[-65.71756,-28.44936],[-65.71762,-28.44947],[-65.71771,-28.44976],[-65.71791,-28.45032],[-65.71769,-28.45112],[-65.71768,-28.45147],[-65.7177,-28.45182],[-65.70441,-28.4597],[-65.69606,-28.46695]]]}},{"type":"Feature","properties":{"name":"COMISARIA SAN ANTONIO"},"geometry":{"type":"Polygon","coordinates":[[[-65.73206,-28.40391],[-65.72992,-28.40364],[-65.7286,-28.40527],[-65.72813,-28.40671],[-65.72776,-28.40923],[-65.72836,-28.41217],[-65.7284,-28.41555],[-65.7284,-28.41633],[-65.72874,-28.41798],[-65.72927,-28.41871],[-65.72992,-28.41944],[-65.72984,-28.42063],[-65.72979,-28.42181],[-65.72964,-28.42287],[-65.72916,-28.42479],[-65.72587,-28.43002],[-65.72609,-28.43278],[-65.72488,-28.43139],[-65.72424,-28.42999],[-65.72391,-28.42715],[-65.72312,-28.42787],[-65.7212,-28.42859],[-65.72067,-28.42862],[-65.71987,-28.42855],[-65.7191,-28.42833],[-65.71767,-28.42844],[-65.71721,-28.42894],[-65.71621,-28.42935],[-65.71424,-28.42977],[-65.71344,-28.42967],[-65.71249,-28.42967],[-65.71127,-28.42926],[-65.70974,-28.42963],[-65.70948,-28.42908],[-65.70888,-28.42928],[-65.70836,-28.42967],[-65.70786,-28.42985],[-65.70736,-28.43097],[-65.7054,-28.43257],[-65.70391,-28.43488],[-65.70381,-28.43535],[-65.70088,-28.43616],[-65.69761,-28.43694],[-65.69571,-28.43757],[-65.69193,-28.438],[-65.68942,-28.43833],[-65.68742,-28.43861],[-65.67897,-28.44178],[-65.6715,-28.44462],[-65.66929,-28.43408],[-65.68586,-28.41693],[-65.6842,-28.40636],[-65.68444,-28.39736],[-65.70369,-28.39571],[-65.70427,-28.39562],[-65.70976,-28.39494],[-65.71202,-28.39443],[-65.71444,-28.3943],[-65.71568,-28.39409],[-65.71654,-28.39438],[-65.71703,-28.39438],[-65.73364,-28.39224],[-65.73206,-28.40391]]]}},{"type":"Feature","properties":{"name":"COMISARIA SAN ISIDRO"},"geometry":{"type":"Polygon","coordinates":[[[-65.7302,-28.47071],[-65.72928,-28.47267],[-65.72808,-28.4727],[-65.72544,-28.47213],[-65.72207,-28.47197],[-65.72104,-28.4722],[-65.71679,-28.47382],[-65.71422,-28.47431],[-65.72943,-28.4792],[-65.7292,-28.47995],[-65.72639,-28.48806],[-65.72561,-28.49033],[-65.72503,-28.49207],[-65.72272,-28.49573],[-65.72246,-28.49637],[-65.72246,-28.49705],[-65.73178,-28.51535],[-65.74097,-28.5334],[-65.74719,-28.54589],[-65.7516,-28.55426],[-65.75488,-28.56082],[-65.75516,-28.56252],[-65.76373,-28.64893],[-65.76807,-28.69263],[-65.76891,-28.70654],[-65.76997,-28.71099],[-65.77034,-28.71447],[-65.77133,-28.72483],[-65.77187,-28.73031],[-65.77241,-28.73546],[-65.72803,-28.74498],[-65.67997,-28.56602],[-65.61376,-28.53612],[-65.64998,-28.48211],[-65.65649,-28.48031],[-65.65751,-28.4804],[-65.65946,-28.47966],[-65.66148,-28.47955],[-65.66332,-28.48006],[-65.66603,-28.48162],[-65.66664,-28.48221],[-65.66783,-28.48438],[-65.67019,-28.48619],[-65.67281,-28.48679],[-65.67513,-28.48556],[-65.67728,-28.48394],[-65.69081,-28.47172],[-65.7045,-28.45981],[-65.71715,-28.4523],[-65.72115,-28.44982],[-65.72128,-28.45044],[-65.72158,-28.45182],[-65.72321,-28.45092],[-65.72403,-28.45104],[-65.7241,-28.4501],[-65.72659,-28.44992],[-65.72742,-28.44977],[-65.72593,-28.4485],[-65.72871,-28.44775],[-65.72954,-28.44775],[-65.72933,-28.44918],[-65.72993,-28.45108],[-65.73041,-28.45275],[-65.73077,-28.45379],[-65.73122,-28.45418],[-65.73354,-28.45555],[-65.73483,-28.45609],[-65.73625,-28.45666],[-65.73741,-28.45758],[-65.7382,-28.45885],[-65.73936,-28.45947],[-65.74005,-28.45954],[-65.74138,-28.45966],[-65.7425,-28.46008],[-65.74304,-28.46081],[-65.74358,-28.46141],[-65.74435,-28.46229],[-65.74548,-28.46367],[-65.74671,-28.46425],[-65.74797,-28.46496],[-65.74856,-28.46529],[-65.74952,-28.46609],[-65.74963,-28.46621],[-65.7478,-28.46655],[-65.7458,-28.46679],[-65.73893,-28.4669],[-65.73752,-28.46722],[-65.73643,-28.4676],[-65.73459,-28.46832],[-65.73403,-28.46825],[-65.73348,-28.46822],[-65.73176,-28.46929],[-65.73079,-28.46994],[-65.7302,-28.47071]]]}},{"type":"Feature","properties":{"name":"SUB COMISARIA QUEBRADA DE MOREIRA"},"geometry":{"type":"Polygon","coordinates":[[[-65.7596,-28.43368],[-65.75839,-28.42619],[-65.75731,-28.41851],[-65.76523,-28.41566],[-65.76823,-28.43255],[-65.7596,-28.43368]]]}}]}